CCSDS_OMM_VERS = 2.0
CREATION_DATE  = 
ORIGINATOR     = 

OBJECT_NAME    = CZ-2C R/B
OBJECT_ID      = 2022-058K
CENTER_NAME    = EARTH
REF_FRAME      = TEME
TIME_SYSTEM    = UTC
MEAN_ELEMENT_THEORY = SGP/SGP4

EPOCH          = 2025-12-01T13:49:32.702880
MEAN_MOTION    = 15.47664206
ECCENTRICITY   = .0046782
INCLINATION    = 50.1898
RA_OF_ASC_NODE = 100.4471
ARG_OF_PERICENTER = 152.3662
MEAN_ANOMALY   = 207.9806

EPHEMERIS_TYPE = 0
CLASSIFICATION_TYPE = U
NORAD_CAT_ID   = 52794
ELEMENT_SET_NO = 999
REV_AT_EPOCH   = 19490
BSTAR          = .57045E-3
MEAN_MOTION_DOT = .31009E-3
MEAN_MOTION_DDOT = 0

CCSDS_OMM_VERS = 2.0
CREATION_DATE  = 
ORIGINATOR     = 

OBJECT_NAME    = CZ-2C R/B
OBJECT_ID      = 2022-132E
CENTER_NAME    = EARTH
REF_FRAME      = TEME
TIME_SYSTEM    = UTC
MEAN_ELEMENT_THEORY = SGP/SGP4

EPOCH          = 2025-12-01T12:47:34.484928
MEAN_MOTION    = 15.53756542
ECCENTRICITY   = .0023961
INCLINATION    = 97.2946
RA_OF_ASC_NODE = 331.5265
ARG_OF_PERICENTER = 93.5274
MEAN_ANOMALY   = 266.8720

EPHEMERIS_TYPE = 0
CLASSIFICATION_TYPE = U
NORAD_CAT_ID   = 54039
ELEMENT_SET_NO = 999
REV_AT_EPOCH   = 17509
BSTAR          = .50531E-3
MEAN_MOTION_DOT = .32766E-3
MEAN_MOTION_DDOT = 0

CCSDS_OMM_VERS = 2.0
CREATION_DATE  = 
ORIGINATOR     = 

OBJECT_NAME    = GSLV R/B
OBJECT_ID      = 2022-138AN
CENTER_NAME    = EARTH
REF_FRAME      = TEME
TIME_SYSTEM    = UTC
MEAN_ELEMENT_THEORY = SGP/SGP4

EPOCH          = 2025-12-01T16:27:29.549088
MEAN_MOTION    = 14.96036584
ECCENTRICITY   = .0023013
INCLINATION    = 87.3839
RA_OF_ASC_NODE = 199.1749
ARG_OF_PERICENTER = 142.2172
MEAN_ANOMALY   = 218.0680

EPHEMERIS_TYPE = 0
CLASSIFICATION_TYPE = U
NORAD_CAT_ID   = 54149
ELEMENT_SET_NO = 999
REV_AT_EPOCH   = 16927
BSTAR          = .24679E-3
MEAN_MOTION_DOT = .2812E-4
MEAN_MOTION_DDOT = 0

CCSDS_OMM_VERS = 2.0
CREATION_DATE  = 
ORIGINATOR     = 

OBJECT_NAME    = XRISM
OBJECT_ID      = 2023-137A
CENTER_NAME    = EARTH
REF_FRAME      = TEME
TIME_SYSTEM    = UTC
MEAN_ELEMENT_THEORY = SGP/SGP4

EPOCH          = 2025-12-01T19:07:38.696160
MEAN_MOTION    = 15.10182700
ECCENTRICITY   = .0007643
INCLINATION    = 31.0004
RA_OF_ASC_NODE = 196.1896
ARG_OF_PERICENTER = 134.3574
MEAN_ANOMALY   = 225.7691

EPHEMERIS_TYPE = 0
CLASSIFICATION_TYPE = U
NORAD_CAT_ID   = 57800
ELEMENT_SET_NO = 999
REV_AT_EPOCH   = 12297
BSTAR          = .3435E-3
MEAN_MOTION_DOT = .5847E-4
MEAN_MOTION_DDOT = 0

CCSDS_OMM_VERS = 2.0
CREATION_DATE  = 
ORIGINATOR     = 

OBJECT_NAME    = ACS3
OBJECT_ID      = 2024-077B
CENTER_NAME    = EARTH
REF_FRAME      = TEME
TIME_SYSTEM    = UTC
MEAN_ELEMENT_THEORY = SGP/SGP4

EPOCH          = 2025-12-01T20:18:08.829792
MEAN_MOTION    = 13.84664174
ECCENTRICITY   = .007658
INCLINATION    = 97.2780
RA_OF_ASC_NODE = 293.8838
ARG_OF_PERICENTER = 0.6364
MEAN_ANOMALY   = 359.4882

EPHEMERIS_TYPE = 0
CLASSIFICATION_TYPE = U
NORAD_CAT_ID   = 59588
ELEMENT_SET_NO = 999
REV_AT_EPOCH   = 8063
BSTAR          = .12557E-1
MEAN_MOTION_DOT = .14437E-3
MEAN_MOTION_DDOT = 0

