CZ-2C R/B               
1 52794U 22058K   25335.57607295  .00031009  00000+0  57045-3 0  9999
2 52794  50.1898 100.4471 0046782 152.3662 207.9806 15.47664206194905
CZ-2C R/B               
1 54039U 22132E   25335.53303802  .00032766  00000+0  50531-3 0  9993
2 54039  97.2946 331.5265 0023961  93.5274 266.8720 15.53756542175092
GSLV R/B                
1 54149U 22138AN  25335.68575867  .00002812  00000+0  24679-3 0  9992
2 54149  87.3839 199.1749 0023013 142.2172 218.0680 14.96036584169277
XRISM                   
1 57800U 23137A   25335.79697565  .00005847  00000+0  34350-3 0  9999
2 57800  31.0004 196.1896 0007643 134.3574 225.7691 15.10182700122975
ACS3                    
1 59588U 24077B   25335.84593553  .00014437  00000+0  12557-1 0  9994
2 59588  97.2780 293.8838 0076580   0.6364 359.4882 13.84664174 80636
